[{"OBJECT_NAME":"ONEWEB-0329","OBJECT_ID":"2021-075AJ","EPOCH":"2025-09-22T19:27:15.996384","MEAN_MOTION":13.17648905,"ECCENTRICITY":0.00018373,"INCLINATION":87.9054,"RA_OF_ASC_NODE":59.0604,"ARG_OF_PERICENTER":94.5495,"MEAN_ANOMALY":265.5846,"EPHEMERIS_TYPE":0,"CLASSIFICATION_TYPE":"U","NORAD_CAT_ID":49107,"ELEMENT_SET_NO":999,"REV_AT_EPOCH":19837,"BSTAR":-0.00027442777,"MEAN_MOTION_DOT":-9.4e-7,"MEAN_MOTION_DDOT":0},{"OBJECT_NAME":"ONEWEB-0330","OBJECT_ID":"2021-075AK","EPOCH":"2025-09-22T15:49:46.139520","MEAN_MOTION":13.17648745,"ECCENTRICITY":0.00018647,"INCLINATION":87.9058,"RA_OF_ASC_NODE":59.0944,"ARG_OF_PERICENTER":100.1844,"MEAN_ANOMALY":259.9498,"EPHEMERIS_TYPE":0,"CLASSIFICATION_TYPE":"U","NORAD_CAT_ID":49108,"ELEMENT_SET_NO":999,"REV_AT_EPOCH":19839,"BSTAR":-5.791725e-6,"MEAN_MOTION_DOT":1.1e-7,"MEAN_MOTION_DDOT":0},{"OBJECT_NAME":"ONEWEB-0292","OBJECT_ID":"2021-083A","EPOCH":"2025-09-22T16:56:40.147872","MEAN_MOTION":13.134682,"ECCENTRICITY":0.00018696,"INCLINATION":87.9045,"RA_OF_ASC_NODE":13.407,"ARG_OF_PERICENTER":96.6112,"MEAN_ANOMALY":263.523,"EPHEMERIS_TYPE":0,"CLASSIFICATION_TYPE":"U","NORAD_CAT_ID":49186,"ELEMENT_SET_NO":999,"REV_AT_EPOCH":19581,"BSTAR":-0.00053401302,"MEAN_MOTION_DOT":-1.82e-6,"MEAN_MOTION_DDOT":0},{"OBJECT_NAME":"ONEWEB-0303","OBJECT_ID":"2021-083B","EPOCH":"2025-09-22T20:08:40.095744","MEAN_MOTION":13.18684282,"ECCENTRICITY":0.00018782,"INCLINATION":87.9208,"RA_OF_ASC_NODE":28.5419,"ARG_OF_PERICENTER":94.8326,"MEAN_ANOMALY":265.3021,"EPHEMERIS_TYPE":0,"CLASSIFICATION_TYPE":"U","NORAD_CAT_ID":49187,"ELEMENT_SET_NO":999,"REV_AT_EPOCH":19474,"BSTAR":-0.00015941055,"MEAN_MOTION_DOT":-5.0e-7,"MEAN_MOTION_DDOT":0},{"OBJECT_NAME":"ONEWEB-0306","OBJECT_ID":"2021-083C","EPOCH":"2025-09-22T18:05:09.612672","MEAN_MOTION":13.18684616,"ECCENTRICITY":0.0001627,"INCLINATION":87.9208,"RA_OF_ASC_NODE":28.5448,"ARG_OF_PERICENTER":104.8374,"MEAN_ANOMALY":255.2938,"EPHEMERIS_TYPE":0,"CLASSIFICATION_TYPE":"U","NORAD_CAT_ID":49188,"ELEMENT_SET_NO":999,"REV_AT_EPOCH":19477,"BSTAR":4.0656064e-5,"MEAN_MOTION_DOT":2.9e-7,"MEAN_MOTION_DDOT":0},{"OBJECT_NAME":"ONEWEB-0307","OBJECT_ID":"2021-083D","EPOCH":"2025-09-23T00:06:54.762336","MEAN_MOTION":13.13470187,"ECCENTRICITY":0.00017836,"INCLINATION":87.9032,"RA_OF_ASC_NODE":13.3443,"ARG_OF_PERICENTER":110.7854,"MEAN_ANOMALY":249.3466,"EPHEMERIS_TYPE":0,"CLASSIFICATION_TYPE":"U","NORAD_CAT_ID":49189,"ELEMENT_SET_NO":999,"REV_AT_EPOCH":19585,"BSTAR":8.0244766e-5,"MEAN_MOTION_DOT":4.2e-7,"MEAN_MOTION_DDOT":0},{"OBJECT_NAME":"ONEWEB-0320","OBJECT_ID":"2021-083E","EPOCH":"2025-09-22T20:03:57.465792","MEAN_MOTION":13.18669111,"ECCENTRICITY":0.00016988,"INCLINATION":87.9202,"RA_OF_ASC_NODE":28.5553,"ARG_OF_PERICENTER":96.2856,"MEAN_ANOMALY":263.847,"EPHEMERIS_TYPE":0,"CLASSIFICATION_TYPE":"U","NORAD_CAT_ID":49190,"ELEMENT_SET_NO":999,"REV_AT_EPOCH":19474,"BSTAR":-0.0051110877,"MEAN_MOTION_DOT":-2.001e-5,"MEAN_MOTION_DDOT":0},{"OBJECT_NAME":"ONEWEB-0321","OBJECT_ID":"2021-083F","EPOCH":"2025-09-22T16:53:19.704192","MEAN_MOTION":13.2077244,"ECCENTRICITY":0.00016818,"INCLINATION":87.9258,"RA_OF_ASC_NODE":327.7658,"ARG_OF_PERICENTER":106.8295,"MEAN_ANOMALY":253.3023,"EPHEMERIS_TYPE":0,"CLASSIFICATION_TYPE":"U","NORAD_CAT_ID":49191,"ELEMENT_SET_NO":999,"REV_AT_EPOCH":20152,"BSTAR":0.00012851678,"MEAN_MOTION_DOT":6.5e-7,"MEAN_MOTION_DDOT":0},{"OBJECT_NAME":"ONEWEB-0322","OBJECT_ID":"2021-083G","EPOCH":"2025-09-23T00:00:49.235040","MEAN_MOTION":13.13468016,"ECCENTRICITY":0.00014661,"INCLINATION":87.9044,"RA_OF_ASC_NODE":13.3426,"ARG_OF_PERICENTER":112.6112,"MEAN_ANOMALY":247.5172,"EPHEMERIS_TYPE":0,"CLASSIFICATION_TYPE":"U","NORAD_CAT_ID":49192,"ELEMENT_SET_NO":999,"REV_AT_EPOCH":19584,"BSTAR":0.00039284893,"MEAN_MOTION_DOT":1.56e-6,"MEAN_MOTION_DDOT":0},{"OBJECT_NAME":"ONEWEB-0324","OBJECT_ID":"2021-083H","EPOCH":"2025-09-22T21:34:11.107488","MEAN_MOTION":13.18686113,"ECCENTRICITY":0.00018601,"INCLINATION":87.9205,"RA_OF_ASC_NODE":28.5233,"ARG_OF_PERICENTER":102.2421,"MEAN_ANOMALY":257.8919,"EPHEMERIS_TYPE":0,"CLASSIFICATION_TYPE":"U","NORAD_CAT_ID":49193,"ELEMENT_SET_NO":999,"REV_AT_EPOCH":19477,"BSTAR":-0.00010680059,"MEAN_MOTION_DOT":-2.9e-7,"MEAN_MOTION_DDOT":0},{"OBJECT_NAME":"ONEWEB-0325","OBJECT_ID":"2021-083J","EPOCH":"2025-09-22T21:38:56.111712","MEAN_MOTION":13.18684194,"ECCENTRICITY":0.00016662,"INCLINATION":87.9205,"RA_OF_ASC_NODE":28.5403,"ARG_OF_PERICENTER":99.5382,"MEAN_ANOMALY":260.5939,"EPHEMERIS_TYPE":0,"CLASSIFICATION_TYPE":"U","NORAD_CAT_ID":49194,"ELEMENT_SET_NO":999,"REV_AT_EPOCH":19478,"BSTAR":-5.012174e-6,"MEAN_MOTION_DOT":1.1e-7,"MEAN_MOTION_DDOT":0},{"OBJECT_NAME":"ONEWEB-0326","OBJECT_ID":"2021-083K","EPOCH":"2025-09-22T20:11:14.978976","MEAN_MOTION":13.18686037,"ECCENTRICITY":0.00018925,"INCLINATION":87.9207,"RA_OF_ASC_NODE":28.5404,"ARG_OF_PERICENTER":89.6045,"MEAN_ANOMALY":270.5304,"EPHEMERIS_TYPE":0,"CLASSIFICATION_TYPE":"U","NORAD_CAT_ID":49195,"ELEMENT_SET_NO":999,"REV_AT_EPOCH":19476,"BSTAR":-1.2364017e-5,"MEAN_MOTION_DOT":8.0e-8,"MEAN_MOTION_DDOT":0},{"OBJECT_NAME":"ONEWEB-0327","OBJECT_ID":"2021-083L","EPOCH":"2025-09-22T20:10:50.914848","MEAN_MOTION":13.18683978,"ECCENTRICITY":0.00018373,"INCLINATION":87.9198,"RA_OF_ASC_NODE":28.5664,"ARG_OF_PERICENTER":86.9616,"MEAN_ANOMALY":273.1726,"EPHEMERIS_TYPE":0,"CLASSIFICATION_TYPE":"U","NORAD_CAT_ID":49196,"ELEMENT_SET_NO":999,"REV_AT_EPOCH":19478,"BSTAR":-6.1882472e-5,"MEAN_MOTION_DOT":-1.1e-7,"MEAN_MOTION_DDOT":0},{"OBJECT_NAME":"ONEWEB-0328","OBJECT_ID":"2021-083M","EPOCH":"2025-09-23T05:15:16.852320","MEAN_MOTION":13.13467687,"ECCENTRICITY":0.00018547,"INCLINATION":87.9048,"RA_OF_ASC_NODE":13.2386,"ARG_OF_PERICENTER":102.6945,"MEAN_ANOMALY":257.4391,"EPHEMERIS_TYPE":0,"CLASSIFICATION_TYPE":"U","NORAD_CAT_ID":49197,"ELEMENT_SET_NO":999,"REV_AT_EPOCH":19585,"BSTAR":0.00086142166,"MEAN_MOTION_DOT":3.27e-6,"MEAN_MOTION_DDOT":0},{"OBJECT_NAME":"ONEWEB-0331","OBJECT_ID":"2021-083N","EPOCH":"2025-09-22T20:01:32.913408","MEAN_MOTION":13.18684754,"ECCENTRICITY":0.00020822,"INCLINATION":87.9207,"RA_OF_ASC_NODE":28.5341,"ARG_OF_PERICENTER":94.2617,"MEAN_ANOMALY":265.8753,"EPHEMERIS_TYPE":0,"CLASSIFICATION_TYPE":"U","NORAD_CAT_ID":49198,"ELEMENT_SET_NO":999,"REV_AT_EPOCH":19477,"BSTAR":1.7514338e-5,"MEAN_MOTION_DOT":2.0e-7,"MEAN_MOTION_DDOT":0},{"OBJECT_NAME":"ONEWEB-0333","OBJECT_ID":"2021-083P","EPOCH":"2025-09-22T19:59:29.692320","MEAN_MOTION":13.13471199,"ECCENTRICITY":0.0001667,"INCLINATION":87.9035,"RA_OF_ASC_NODE":13.3809,"ARG_OF_PERICENTER":100.4891,"MEAN_ANOMALY":259.6426,"EPHEMERIS_TYPE":0,"CLASSIFICATION_TYPE":"U","NORAD_CAT_ID":49199,"ELEMENT_SET_NO":999,"REV_AT_EPOCH":19581,"BSTAR":0.00080050053,"MEAN_MOTION_DOT":3.05e-6,"MEAN_MOTION_DDOT":0},{"OBJECT_NAME":"ONEWEB-0334","OBJECT_ID":"2021-083Q","EPOCH":"2025-09-22T17:18:19.635840","MEAN_MOTION":13.20772529,"ECCENTRICITY":9.438e-5,"INCLINATION":87.9254,"RA_OF_ASC_NODE":327.7951,"ARG_OF_PERICENTER":118.1224,"MEAN_ANOMALY":242.0005,"EPHEMERIS_TYPE":0,"CLASSIFICATION_TYPE":"U","NORAD_CAT_ID":49200,"ELEMENT_SET_NO":999,"REV_AT_EPOCH":20148,"BSTAR":-9.1172638e-5,"MEAN_MOTION_DOT":-2.4e-7,"MEAN_MOTION_DDOT":0}]
