ONEWEB-0329             
1 49107U 21075AJ  25265.81060181 -.00000094  00000+0 -27443-3 0  9998
2 49107  87.9054  59.0604 0001837  94.5495 265.5846 13.17648905198373
ONEWEB-0330             
1 49108U 21075AK  25265.65956180  .00000011  00000+0 -57917-5 0  9993
2 49108  87.9058  59.0944 0001864 100.1844 259.9498 13.17648745198391
ONEWEB-0292             
1 49186U 21083A   25265.70602023 -.00000182  00000+0 -53401-3 0  9990
2 49186  87.9045  13.4070 0001869  96.6112 263.5230 13.13468200195810
ONEWEB-0303             
1 49187U 21083B   25265.83935296 -.00000050  00000+0 -15941-3 0  9997
2 49187  87.9208  28.5419 0001878  94.8326 265.3021 13.18684282194747
ONEWEB-0306             
1 49188U 21083C   25265.75358348  .00000029  00000+0  40656-4 0  9992
2 49188  87.9208  28.5448 0001627 104.8374 255.2938 13.18684616194776
ONEWEB-0307             
1 49189U 21083D   25266.00480049  .00000042  00000+0  80245-4 0  9999
2 49189  87.9032  13.3443 0001783 110.7854 249.3466 13.13470187195852
ONEWEB-0320             
1 49190U 21083E   25265.83608178 -.00002001  00000+0 -51111-2 0  9993
2 49190  87.9202  28.5553 0001698  96.2856 263.8470 13.18669111194743
ONEWEB-0321             
1 49191U 21083F   25265.70370028  .00000065  00000+0  12852-3 0  9996
2 49191  87.9258 327.7658 0001681 106.8295 253.3023 13.20772440201528
ONEWEB-0322             
1 49192U 21083G   25266.00056985  .00000156  00000+0  39285-3 0  9994
2 49192  87.9044  13.3426 0001466 112.6112 247.5172 13.13468016195847
ONEWEB-0324             
1 49193U 21083H   25265.89873967 -.00000029  00000+0 -10680-3 0  9997
2 49193  87.9205  28.5233 0001860 102.2421 257.8919 13.18686113194776
ONEWEB-0325             
1 49194U 21083J   25265.90203833  .00000011  00000+0 -50122-5 0  9996
2 49194  87.9205  28.5403 0001666  99.5382 260.5939 13.18684194194785
ONEWEB-0326             
1 49195U 21083K   25265.84114559  .00000008  00000+0 -12364-4 0  9997
2 49195  87.9207  28.5404 0001892  89.6045 270.5304 13.18686037194769
ONEWEB-0327             
1 49196U 21083L   25265.84086707 -.00000011  00000+0 -61882-4 0  9995
2 49196  87.9198  28.5664 0001837  86.9616 273.1726 13.18683978194780
ONEWEB-0328             
1 49197U 21083M   25266.21894505  .00000327  00000+0  86142-3 0  9994
2 49197  87.9048  13.2386 0001854 102.6945 257.4391 13.13467687195851
ONEWEB-0331             
1 49198U 21083N   25265.83440872  .00000020  00000+0  17514-4 0  9994
2 49198  87.9207  28.5341 0002082  94.2617 265.8753 13.18684754194771
ONEWEB-0333             
1 49199U 21083P   25265.83298255  .00000305  00000+0  80050-3 0  9991
2 49199  87.9035  13.3809 0001667 100.4891 259.6426 13.13471199195810
ONEWEB-0334             
1 49200U 21083Q   25265.72106060 -.00000024  00000+0 -91173-4 0  9993
2 49200  87.9254 327.7951 0000943 118.1224 242.0005 13.20772529201487
